SHIYAN-1 (SY-1)         
1 28220U 04012A   26068.73650539  .00016393  00000+0  54854-3 0  9991
2 28220  97.8764 140.5238 0005873  23.6952 336.4557 15.31043463195862
STARLINK-31266          
1 59087U 24041P   26068.03748367  .00002571  00000+0  10287-3 0  9995
2 59087  42.9975 314.2272 0000306  17.3505 342.7357 15.27591409114222
